*******************************************************************************
JPL/HORIZONS                 92 Undina (A867 NA)           2023-Sep-04 11:04:20
Rec #:      92 (+COV) Soln.date: 2023-Aug-25_00:51:31   # obs: 2993 (1871-2023)
 
IAU76/J2000 helio. ecliptic osc. elements (au, days, deg., period=Julian yrs):
 
  EPOCH=  2457433.5 ! 2016-Feb-15.00 (TDB)         Residual RMS= .33819
   EC= .1038967224386932   QR= 2.856503832423029   TP= 2457565.3578802687
   OM= 101.5919600450754   W=  239.5392009698942   IN= 9.929571440970719
   A= 3.187694882889882    MA= 337.1653139062574   ADIST= 3.518885933356734
   PER= 5.69146            N= .173176499           ANGMOM= .030546613
   DAN= 3.3286             DDN= 2.99551            L= 340.7519029
   B= -8.5479488           MOID= 1.86243999        TP= 2016-Jun-25.8578802687
 
Asteroid physical parameters (km, seconds, rotational period in hours):
   GM= n.a.                RAD= 63.21              ROTPER= 15.941
   H= 6.82                 G= .150                 B-V= .725
                           ALBEDO= .2509           STYP= Xc

ASTEROID comments: 
1: soln ref.= JPL#119, OCC=0
2: source=ORB
*******************************************************************************


*******************************************************************************
Ephemeris / API_USER Mon Sep  4 11:04:20 2023 Pasadena, USA      / Horizons
*******************************************************************************
Target body name: 92 Undina (A867 NA)             {source: JPL#119}
Center body name: Solar System Barycenter (0)     {source: DE441}
Center-site name: BODY CENTER
*******************************************************************************
Start time      : A.D. 2023-Aug-12 00:00:00.0000 TDB
Stop  time      : A.D. 2023-Aug-13 00:00:00.0000 TDB
Step-size       : 2880 minutes
*******************************************************************************
Center geodetic : 0.0, 0.0, 0.0                   {E-lon(deg),Lat(deg),Alt(km)}
Center cylindric: 0.0, 0.0, 0.0                   {E-lon(deg),Dxy(km),Dz(km)}
Center radii    : (undefined)
Small perturbers: Yes                             {source: SB441-N16}
Output units    : KM-S
Calendar mode   : Mixed Julian/Gregorian
Output type     : GEOMETRIC cartesian states
Output format   : 2 (position and velocity)
Reference frame : Ecliptic of J2000.0
*******************************************************************************
Initial IAU76/J2000 heliocentric ecliptic osculating elements (au, days, deg.):
  EPOCH=  2457433.5 ! 2016-Feb-15.00 (TDB)         Residual RMS= .33819        
   EC= .1038967224386932   QR= 2.856503832423029   TP= 2457565.3578802687      
   OM= 101.5919600450754   W=  239.5392009698942   IN= 9.929571440970719       
  Equivalent ICRF heliocentric cartesian coordinates (au, au/d):
   X= 1.950004543153086E+00  Y=-1.837050816174013E+00  Z=-1.079850045238439E+00
  VX= 7.274708369435614E-03 VY= 7.519553821484941E-03 VZ= 1.611302696032027E-03
Asteroid physical parameters (km, seconds, rotational period in hours):        
   GM= n.a.                RAD= 63.21              ROTPER= 15.941              
   H= 6.82                 G= .150                 B-V= .725                   
                           ALBEDO= .2509           STYP= Xc                    
*******************************************************************************
JDTDB
   X     Y     Z
   VX    VY    VZ
*******************************************************************************
$$SOE
2460168.500000000 = A.D. 2023-Aug-12 00:00:00.0000 TDB 
 X = 4.929426239618725E+07 Y = 4.810751356798113E+08 Z =-2.527839883379367E+07
 VX=-1.580777919555999E+01 VY= 3.500172064749838E+00 VZ= 2.590306161076241E+00
$$EOE
*******************************************************************************
 
TIME

  Barycentric Dynamical Time ("TDB" or T_eph) output was requested. This
continuous coordinate time is equivalent to the relativistic proper time
of a clock at rest in a reference frame co-moving with the solar system
barycenter but outside the system's gravity well. It is the independent
variable in the solar system relativistic equations of motion.

  TDB runs at a uniform rate of one SI second per second and is independent
of irregularities in Earth's rotation.
 
CALENDAR SYSTEM

  Mixed calendar mode was active such that calendar dates after AD 1582-Oct-15
(if any) are in the modern Gregorian system. Dates prior to 1582-Oct-5 (if any)
are in the Julian calendar system, which is automatically extended for dates
prior to its adoption on 45-Jan-1 BC.  The Julian calendar is useful for
matching historical dates. The Gregorian calendar more accurately corresponds
to the Earth's orbital motion and seasons. A "Gregorian-only" calendar mode is
available if such physical events are the primary interest.

REFERENCE FRAME AND COORDINATES

  Ecliptic at the standard reference epoch

    Reference epoch: J2000.0
    X-Y plane: adopted Earth orbital plane at the reference epoch
               Note: IAU76 obliquity of 84381.448 arcseconds wrt ICRF X-Y plane
    X-axis   : ICRF
    Z-axis   : perpendicular to the X-Y plane in the directional (+ or -) sense
               of Earth's north pole at the reference epoch.

  Symbol meaning:

    JDTDB    Julian Day Number, Barycentric Dynamical Time
      X      X-component of position vector (km)
      Y      Y-component of position vector (km)
      Z      Z-component of position vector (km)
      VX     X-component of velocity vector (km/sec)                           
      VY     Y-component of velocity vector (km/sec)                           
      VZ     Z-component of velocity vector (km/sec)                           

ABERRATIONS AND CORRECTIONS

 Geometric state vectors have NO corrections or aberrations applied.

Computations by ...

    Solar System Dynamics Group, Horizons On-Line Ephemeris System
    4800 Oak Grove Drive, Jet Propulsion Laboratory
    Pasadena, CA  91109   USA

    General site: https://ssd.jpl.nasa.gov/
    Mailing list: https://ssd.jpl.nasa.gov/email_list.html
    System news : https://ssd.jpl.nasa.gov/horizons/news.html
    User Guide  : https://ssd.jpl.nasa.gov/horizons/manual.html
    Connect     : browser        https://ssd.jpl.nasa.gov/horizons/app.html#/x
                  API            https://ssd-api.jpl.nasa.gov/doc/horizons.html
                  command-line   telnet ssd.jpl.nasa.gov 6775
                  e-mail/batch   https://ssd.jpl.nasa.gov/ftp/ssd/hrzn_batch.txt
                  scripts        https://ssd.jpl.nasa.gov/ftp/ssd/SCRIPTS
    Author      : Jon.D.Giorgini@jpl.nasa.gov
*******************************************************************************
